{
  "type": "Feature",
  "name": "TOYSRUS BABIESRUS",
  "POI:Category": "Toy Store",
  "store_url": "https://www2.toysrus.co.jp/storeinfo/?q=&lang=en",
  "website": "https://www2.toysrus.co.jp",
  "properties": {
    "attributes": [
      {
        "name": " Asahikawa",
        "type": " est",
        "slug": " 4725",
        "postal_code": " 079-8422",
        "address": " WESTERN POWERS 3-122-55 Nagayama12-Jo, Asahikawa-shi, Hokkaido,",
        "phone": " 0166-47-4683",
        "opening": " 10:00-20:00"
      },
      {
        "name": " Hakodate",
        "type": " est",
        "slug": " 4753",
        "postal_code": " 041-0802",
        "address": " CENTRE MARUYAMA 52-15 Ishikawa-cho, Hakodate-shi, Hokkaido,",
        "phone": " 0138-47-4516",
        "opening": " 10:00-20:00"
      },
      {
        "name": " Obihiro-Otofuke",
        "type": " toy",
        "slug": " 4777",
        "postal_code": " 080-0301",
        "address": " SUPER OK CENTER Otofuke 17-1 Kino Oodori Nishi, Otofuke-cho, Koto-gun, Hokkaido,",
        "phone": " 0155-30-9190",
        "opening": " 10:00-20:00"
      },
      {
        "name": " Kushiro",
        "type": " toy",
        "slug": " 4786",
        "postal_code": " 084-0910",
        "address": " 3-3-8 Showa-Chuo Kushiro-shi, Hokkaido,",
        "phone": " 0154-53-3922",
        "opening": " 10:00-20:00"
      },
      {
        "name": " Tomakomai",
        "type": " toy",
        "slug": " 4749",
        "postal_code": " 053-0053",
        "address": " HOKUREN SHOP 4-5-35 Yanagi-cho, Tomakomai-shi, Hokkaido,",
        "phone": " 0144-55-3797",
        "opening": " 10:00-20:00"
      },
      {
        "name": " Sapporo",
        "type": " est",
        "slug": " 4796",
        "postal_code": " 065-0007",
        "address": " ARIO SAPPORO 2F 9-2-20 Kita-7-jo higashi, Higashi-ku, Sapporo-shi, Hokkaido,",
        "phone": " 011-751-0351",
        "opening": " 10:00-21:00"
      },
      {
        "name": " Sapporo Hiraoka",
        "type": " toy",
        "slug": " 4851",
        "postal_code": " 004-0873",
        "address": " AEON MALL Sapporo Hiraoka 1F 5-3-1 Hiraoka 3-jo, Kiyota-ku, Sapporo-shi, Hokkaido,",
        "phone": " 011-886-7432",
        "opening": " 9:00-21:00"
      },
      {
        "name": " Aomori",
        "type": " toy",
        "slug": " 4764",
        "postal_code": " 038-0006",
        "address": " GALA TOWN 2-3-11 Miyoshi, Aomori-shi, Aomori,",
        "phone": " 017-783-2102",
        "opening": " 10:00-20:00"
      },
      {
        "name": " Hachinohe",
        "type": " est",
        "slug": " 4784",
        "postal_code": " 031-0071",
        "address": " PIADO 4-7-110 Numadate, Hachinohe-shi, Aomori,",
        "phone": " 0178-24-0481",
        "opening": " 10:00-20:00"
      },
      {
        "name": " Kitakami",
        "type": " toy",
        "slug": " 4782",
        "postal_code": " 024-0081",
        "address": " 10-3 Arita-cho Kitakami-shi, Iwate,",
        "phone": " 0197-64-7778",
        "opening": " 10:00-20:00"
      },
      {
        "name": " Morioka Minami",
        "type": " est",
        "slug": " 4836",
        "postal_code": " 020-0866",
        "address": " AEON MALL Morioka-Minami 2F 7-1-1 Motomiya, Morioka-shi , Morioka,",
        "phone": " 019-636-3332",
        "opening": " 10:00-21:00"
      },
      {
        "name": " Ishinomaki-Yamoto",
        "type": " toy",
        "slug": " 4790",
        "postal_code": " 981-0504",
        "address": " AEON TOWN Yamoto 43 Aza-kamiutari Komatsu, Higashimatsushima-shi, Miyagi,",
        "phone": " 0225-83-1363",
        "opening": " 10:00-20:00"
      },
      {
        "name": " Sendai-Nagamachi",
        "type": " toy",
        "slug": " 4855",
        "postal_code": " 982-0011",
        "address": " THE MALL Sendai-nagamachi 3F 7-20-3 Nagamachi, Taihaku-ku, Sendai-shi, Miyagi,",
        "phone": " 022-247-7553",
        "opening": " 10:00-21:00"
      },
      {
        "name": " Natori-Rinku Town",
        "type": " est",
        "slug": " 4826",
        "postal_code": " 981-1227",
        "address": " ACROSS PLAZA Mori-sekinoshita 5-5-13 Mori-Sekinoshita, Natori-shi, Miyagi,",
        "phone": " 022-381-1795",
        "opening": " 10:00-20:00"
      },
      {
        "name": " Sendai-Izumiohsawa",
        "type": " est",
        "slug": " 4828",
        "postal_code": " 981-3137",
        "address": " AEON TOWN Senndai izumiosawa 2F 1-5-1 Osawa , Izumi-ku, Sendai-shi, Miyagi,",
        "phone": " 022-776-1091",
        "opening": " 10:00-21:00"
      },
      {
        "name": " Akita",
        "type": " est",
        "slug": " 4756",
        "postal_code": " 010-0061",
        "address": " 1-135-1 Oroshi-machi Akita-shi, Akita,",
        "phone": " 018-866-9214",
        "opening": " 10:00-20:00"
      },
      {
        "name": " Yamagata",
        "type": " est",
        "slug": " 4877",
        "postal_code": " 990-2453",
        "address": " AEON MALL Yamagata-minami 2F 3-7-8 Wakamiya, Yamagata-shi, Yamagata,",
        "phone": " 023-646-5450",
        "opening": " 10:00-21:00"
      },
      {
        "name": " Iwaki",
        "type": " toy",
        "slug": " 4730",
        "postal_code": " 970-8036",
        "address": " 3-23-10 Tairayagawase Iwaki-shi, Fukushima,",
        "phone": " 0246-25-4691",
        "opening": " 10:00-20:00"
      },
      {
        "name": " Fukushima",
        "type": " est",
        "slug": " 4740",
        "postal_code": " 960-8003",
        "address": " COOP MART IZUMI 2F 7 Aza-Shimizu, Moriai, Fukushima-shi, Fukushima,",
        "phone": " 024-559-0796",
        "opening": " 10:00-20:00"
      },
      {
        "name": " Koriyama",
        "type": " est",
        "slug": " 4745",
        "postal_code": " 963-8812",
        "address": " AEON TOWN Koriyama 2-88 Matsuki-cho, Koriyama-shi, Fukushima,",
        "phone": " 024-956-3397",
        "opening": " 10:00-20:00"
      },
      {
        "name": " Mito",
        "type": " est",
        "slug": " 4721",
        "postal_code": " 311-4153",
        "address": " 3637-1 Kawawada-cho Mito-shi, Ibaraki,",
        "phone": " 029-253-4681",
        "opening": " 10:00-20:00"
      },
      {
        "name": " Ryugasaki",
        "type": " toy",
        "slug": " 4715",
        "postal_code": " 301-0044",
        "address": " 1-7 Koshiba Ryugasaki-shi, Ibaraki,",
        "phone": " 0297-65-5145",
        "opening": " 10:00-20:00"
      },
      {
        "name": " Tsukuba",
        "type": " est",
        "slug": " 4825",
        "postal_code": " 305-0817",
        "address": " IIAS Tsukuba 3F 5-19 Kenkyu-Gakuen, Tsukuba-shi, Ibaraki,",
        "phone": " 029-852-2770",
        "opening": " 10:00-21:00"
      },
      {
        "name": " Hitachinaka",
        "type": " toy",
        "slug": " 4852",
        "postal_code": " 312-0005",
        "address": " NEW PORT HITACHINAKA FASHON CRUISE 1F 35 Shinko-cho, Hitachinaka-shi, Ibaraki,",
        "phone": " 029-200-3005",
        "opening": " 10:00-20:00"
      },
      {
        "name": " Oyama",
        "type": " est",
        "slug": " 4714",
        "postal_code": " 323-0828",
        "address": " 2-9-33 Kamiyama Oyama-shi, Tochigi,",
        "phone": " 0285-28-4695",
        "opening": " 10:00-20:00"
      },
      {
        "name": " Utsunomiya",
        "type": " est",
        "slug": " 4720",
        "postal_code": " 320-0851",
        "address": " 208-1 Tsuruta-machi Utsunomiya-shi, Tochigi,",
        "phone": " 028-648-4620",
        "opening": " 10:00-20:00"
      },
      {
        "name": " Utsunomiya",
        "type": " baby",
        "slug": " 4792",
        "postal_code": " 321-0118",
        "address": " KATOREA GARDEN 4-1 Inter Park, Utsunomiya-shi, Tochigi,",
        "phone": " 028-656-4581",
        "opening": " 10:00-20:00"
      },
      {
        "name": " Ota",
        "type": " est",
        "slug": " 4723",
        "postal_code": " 373-0817",
        "address": " 1933-2 Iizuka-cho Ota-shi, Gunma,",
        "phone": " 0276-48-4608",
        "opening": " 10:00-20:00"
      },
      {
        "name": " Maebashi",
        "type": " est",
        "slug": " 4739",
        "postal_code": " 371-0845",
        "address": " 164-1 Toriba-machi Maebashi-shi, Gunma,",
        "phone": " 027-253-3707",
        "opening": " 10:00-20:00"
      },
      {
        "name": " Isesaki",
        "type": " est",
        "slug": " 4778",
        "postal_code": " 372-0812",
        "address": " 3025-2 Tsunatori-machi Isesaki-shi, Gunma,",
        "phone": " 0270-22-1000",
        "opening": " 10:00-20:00"
      },
      {
        "name": " Iwatsuki",
        "type": " toy",
        "slug": " 4722",
        "postal_code": " 339-0053",
        "address": " 2-6-28 Shiro-machi Iwatsuki-ku, Saitama-shi, Saitama,",
        "phone": " 048-757-4620",
        "opening": " 10:00-20:00"
      },
      {
        "name": " Kumagaya",
        "type": " toy",
        "slug": " 4733",
        "postal_code": " 360-0804",
        "address": " 1067 Dai Kumagaya-shi, Saitama,",
        "phone": " 048-524-4690",
        "opening": " 10:00-20:00"
      },
      {
        "name": " Warabi",
        "type": " est",
        "slug": " 4746",
        "postal_code": " 335-0001",
        "address": " 5-4-32 Kita-machi Warabi-shi, Saitama,",
        "phone": " 048-446-3617",
        "opening": " 10:00-20:00"
      },
      {
        "name": " Niiza",
        "type": " est",
        "slug": " 4767",
        "postal_code": " 352-0011",
        "address": " LA VINE 2F 5-2-60 Nobitome, Niiza-shi, Saitama,",
        "phone": " 048-483-0050",
        "opening": " 10:00-20:00"
      },
      {
        "name": " Soka",
        "type": " est",
        "slug": " 4771",
        "postal_code": " 340-0055",
        "address": " SEIMON PLAZA 2F 1-401-1 Seimon, Soka-shi, Saitama,",
        "phone": " 048-943-8667",
        "opening": " 10:00-20:00"
      },
      {
        "name": " Kawagoe",
        "type": " est",
        "slug": " 4793",
        "postal_code": " 350-0026",
        "address": " UNICUS MINAMI-FURUYA ANNEX 2-1 Izumi-cho, Kawagoe-shi, Saitama,",
        "phone": " 049-236-1408",
        "opening": " 10:00-20:00"
      },
      {
        "name": " Kuki Shobu",
        "type": " est",
        "slug": " 4845",
        "postal_code": " 346-0106",
        "address": " MALLAGE SHOBU 3F 6005-1 Shobu, Shobu-cho, Kuki-shi, Saitama,",
        "phone": " 0480-85-7990",
        "opening": " 10:00-21:00"
      },
      {
        "name": " Fujimi",
        "type": " toy",
        "slug": " 4860",
        "postal_code": " 354-8560",
        "address": " LALAPORT Fujimi 1F 1-1313 Yamamuro, Fujimi-shi, Saitama,",
        "phone": " 049-253-6500",
        "opening": " 10:00-21:00"
      },
      {
        "name": " Kawaguchi",
        "type": " toy",
        "slug": " 4875",
        "postal_code": " 333-0834",
        "address": " AEON MALL Kawaguchi 3F 3180 Angyoryonegishi, Kawaguchi-shi, Saitama,",
        "phone": " 048-282-8008",
        "opening": " 10:00-21:00"
      },
      {
        "name": " LAKETOWN",
        "type": " toy",
        "slug": " 4882",
        "postal_code": " 343-0828",
        "address": " 3-1-1 Laketown Koshigaya, Saitama AEON LakeTown mori,",
        "phone": " 048-988-0620",
        "opening": " 10:00-22:00"
      },
      {
        "name": "  <span class=\\store-list-shopname-open\\ style=\\color",
        "type": " est",
        "slug": " 4727",
        "postal_code": " 286-0046",
        "address": " 9-4 Iinaka Narita-shi, Chiba,",
        "phone": " 0476-23-4611",
        "opening": " 10:00-20:00"
      },
      {
        "name": " Narita",
        "type": " est",
        "slug": " 4775",
        "postal_code": " 270-0027",
        "address": " PUCHI MALL FUTATSUKI 2F 1781-2 Futatsuki, Matsudo-shi, Chiba,",
        "phone": " 047-347-2335",
        "opening": " 10:00-20:00"
      },
      {
        "name": " Matsudo",
        "type": " toy",
        "slug": " 4781",
        "postal_code": " 278-0031",
        "address": " PARU NOA 2F 57-1 Aza-Kashimahara Nakaneshinden, Noda-shi, Chiba,",
        "phone": " 04-7121-5805",
        "opening": " 10:00-20:00"
      },
      {
        "name": " Noda",
        "type": " est",
        "slug": " 4823",
        "postal_code": " 260-0835",
        "address": " HOME’S Soga 2F 55-3 Kawasaki-cho, Cyuo-ku, Chiba-shi, Chiba,",
        "phone": " 043-305-1050",
        "opening": " 10:00-20:00"
      },
      {
        "name": " Soga",
        "type": " est",
        "slug": " 4837",
        "postal_code": " 273-8530",
        "address": " LALAPORT TOKYO BAY WEST WING 2F 2-1-1 Hama-cho, Funabashi-shi, Chiba,",
        "phone": " 047-435-1555",
        "opening": " "
      },
      {
        "name": " Funabashi",
        "type": " est",
        "slug": " 4838",
        "postal_code": " 261-8535",
        "address": " AEON MALL Makuhari-Shintoshin FAMILY MALL 1F 1-5 Toyosuna, Mihama-ku, Chiba-shi, Chiba,",
        "phone": " 043-275-6200",
        "opening": " 10:00-21:00"
      },
      {
        "name": " Makuhari Shin-Toshin",
        "type": " est",
        "slug": " 4846",
        "postal_code": " 270-1392",
        "address": " AEON MALL Chiba New Town 2F 3-2 Chuo-kita, Inzai-shi, Chiba,",
        "phone": " 0476-46-8520",
        "opening": " 10:00-21:00"
      },
      {
        "name": " Chiba New Town",
        "type": " est",
        "slug": " 4713",
        "postal_code": " 272-0015",
        "address": " NIKKE KOLTON PLAZA EAST MALL 2F 1-1-1 Onitaka, Ichikawa-shi, Chiba,",
        "phone": " 047-379-4680",
        "opening": " 10:00-20:00"
      },
      {
        "name": " Ichikawa",
        "type": " toy",
        "slug": " 4867",
        "postal_code": " 277-8518",
        "address": " LALAPORT Kashiwanoha 3F 175 Wakashiba, Kashihara-shi, Chiba,",
        "phone": " 04-7168-1538",
        "opening": " 10:00-21:00"
      },
      {
        "name": " Kashiwanoha",
        "type": " toy",
        "slug": " 4862",
        "postal_code": " 130-0012",
        "address": " OLINAS MALL 2F 4-1-2 Taihei, Sumida-ku, Tokyo,",
        "phone": " 03-5608-8202",
        "opening": " 10:00-21:00"
      },
      {
        "name": " Kinshicho",
        "type": " est",
        "slug": " 4761",
        "postal_code": " 170-0013",
        "address": " SUNSHINE CITY BUNKAKAIKAN B1F 3-1 Higashiikebukuro, Toshima-ku, Tokyo,",
        "phone": " 03-3983-5400",
        "opening": " 10:00-21:00"
      },
      {
        "name": " Ikebukuro-Sunshine City",
        "type": " est",
        "slug": " 4762",
        "postal_code": " 135-8707",
        "address": " AQUA CITY ODAIBA T101 1F 1-7-1 Daiba, Minato-ku, Tokyo,",
        "phone": " 03-5564-5011",
        "opening": " 11:00 - 21:00"
      },
      {
        "name": " Odaiba",
        "type": " baby",
        "slug": " 4863",
        "postal_code": " 130-0012",
        "address": " OLINAS MALL 2F 4-1-2 Taihei, Sumida-ku, Tokyo,",
        "phone": " 03-5608-8202",
        "opening": " 10:00-21:00"
      },
      {
        "name": " Kinshicho",
        "type": " toy",
        "slug": " 4880",
        "postal_code": " 196-0014",
        "address": " MORI TOWN EAST 1F 562-1 Tanaka-cho, Akishima-shi, Tokyo,",
        "phone": " 042-549-8300",
        "opening": " 10:00-21:00"
      },
      {
        "name": " Akishima",
        "type": " est",
        "slug": " 4750",
        "postal_code": " 190-1212",
        "address": " 729-2 Oaza-Tonogaya Mizuho-machi, Nishitama-gun, Tokyo,",
        "phone": " 042-557-6581",
        "opening": " 10:00-20:00"
      },
      {
        "name": " Musashi-Murayama",
        "type": " baby",
        "slug": " 4791",
        "postal_code": " 183-0046",
        "address": " FRESPO FUCHU 2F 1-6-2 Nishihara-cho, Fuchu-shi, Tokyo,",
        "phone": " 042-334-4481",
        "opening": " 10:00-20:00"
      },
      {
        "name": " Fuchu",
        "type": " est",
        "slug": " 4765",
        "postal_code": " 194-0215",
        "address": " 1-7-2 Oyamagaoka Machida-shi, Tokyo,",
        "phone": " 042-798-2138",
        "opening": " 10:00-20:00"
      },
      {
        "name": " Machida-Tamasakai",
        "type": " toy",
        "slug": " 4861",
        "postal_code": " 190-0015",
        "address": " LALAPORT Tachikawa-tachihi 1F 935-1 Izumi-cho, Tachikawa-shi, Tokyo,",
        "phone": " 042-523-3477",
        "opening": " 10:00-21:00"
      },
      {
        "name": " Tachikawa-Tachihi",
        "type": " est",
        "slug": " 4853",
        "postal_code": " 193-0834",
        "address": " IIAS Takao 2F 550-1 Higashi-asakawa-machi, Hachioji-shi, Tokyo,",
        "phone": " 042-665-7022",
        "opening": " 10:00-21:00"
      },
      {
        "name": " Takao",
        "type": " toy",
        "slug": " 4866",
        "postal_code": " 136-0075",
        "address": " MINAMISUNAMACHI SHOPPING CENTER SUNAMO 3F 3-4-31 Shinsuna, Koto-ku, Tokyo,",
        "phone": " 03-5632-6010",
        "opening": " 10:00-21:00"
      },
      {
        "name": " Sunamo",
        "type": " toy",
        "slug": " 4873",
        "postal_code": " 135-8614",
        "address": " URBAN DOCK LALAPORT Toyosu 3F 2-4-9 Toyosu, Koto-ku, Tokyo,",
        "phone": " 03-6910-1381",
        "opening": " 10:00-21:00"
      },
      {
        "name": " Toyosu",
        "type": " toy",
        "slug": " 4874",
        "postal_code": " 254-8510",
        "address": " LALAPORT Shonan Hiratsuka 3F 10-1 Amanuma, Hiratsuka-shi, Kanagawa,",
        "phone": " 0463-22-2830",
        "opening": " 10:00-21:00"
      },
      {
        "name": " Shonan Hiratsuka",
        "type": " toy",
        "slug": " 4728",
        "postal_code": " 243-0813",
        "address": " 3-25-24 Tsumadahigashi Atsugi-shi, Kanagawa,",
        "phone": " 046-225-4616",
        "opening": " 10:00-20:00"
      },
      {
        "name": " Atsugi",
        "type": " est",
        "slug": " 4742",
        "postal_code": " 213-0001",
        "address": " 6-11-1 Mizonokuchi Takatsu-ku, Kawasaki-shi, Kanagawa,",
        "phone": " 044-811-3300",
        "opening": " 10:00-21:00"
      },
      {
        "name": " Kawasaki-Takatsu",
        "type": " est",
        "slug": " 4751",
        "postal_code": " 256-0813",
        "address": " FRESPO ODAWARA CITY MALL SOUTH 2F 120 Maekawa, Odawara-shi, Kanagawa,",
        "phone": " 0465-48-9636",
        "opening": " 10:00-21:00"
      },
      {
        "name": " Odawara",
        "type": " est",
        "slug": " 4780",
        "postal_code": " 224-0032",
        "address": " KEY-SOUTH 2F 14-12 Chigasaki-chuo, Tsuzuki-ku, Yokohama-shi, Kanagawa,",
        "phone": " 045-945-2004",
        "opening": " 10:00-21:00"
      },
      {
        "name": " Kohoku-New Town",
        "type": " est",
        "slug": " 4788",
        "postal_code": " 251-0042",
        "address": " SHONAN MALL FILL 2F 4-1-1 Tsujido-Shinmachi, Fujisawa-shi, Kanagawa,",
        "phone": " 0466-36-6080",
        "opening": " 10:00-21:00"
      },
      {
        "name": " Fujisawa",
        "type": " est",
        "slug": " 4759",
        "postal_code": " 245-0018",
        "address": " 4702-1 Kamiiida-cho Izumi-ku, Yokohama-shi, Kanagawa,",
        "phone": " 045-301-1795",
        "opening": " 10:00-20:00"
      },
      {
        "name": " Yokohama-Izumi",
        "type": " est",
        "slug": " 4832",
        "postal_code": " 220-0012",
        "address": " MARK IS Minatomirai 3F 3-5-1 Minatomirai, Nishi-ku, Yokohama-shi, Kanagawa,",
        "phone": " 045-641-6900",
        "opening": " 10:00-20:00"
      },
      {
        "name": " Minato Mirai",
        "type": " est",
        "slug": " 4833",
        "postal_code": " 252-0331",
        "address": " NITORI MALL Sagamihara 3F 6-1-1 Onodai, Minami-ku, Sagamihara-shi, Kanagawa,",
        "phone": " 042-751-5550",
        "opening": " 10:00-21:00"
      },
      {
        "name": " Sagamihara",
        "type": " est",
        "slug": " 4840",
        "postal_code": " 238-0013",
        "address": " NOJIMA MALL Yokosuka 1F 3-28-2 Heisei-cho, Yokosuka-shi, Kanagawa,",
        "phone": " 046-825-5200",
        "opening": " 10:00-20:00"
      },
      {
        "name": " Yokosuka",
        "type": " est",
        "slug": " 4857",
        "postal_code": " 222-0002",
        "address": " TRESSA YOKOHAMA SOUTH 1F 700 Morooka-cho, Kohoku-ku, Yokohama-shi, Kanagawa,",
        "phone": " 045-547-4030",
        "opening": " 10:00-21:00"
      },
      {
        "name": " Tressa Yokohama",
        "type": " est",
        "slug": " 4710",
        "postal_code": " 950-0973",
        "address": " DEKKY 401  4-12-20 Kamiomi, Chuo-ku, Niigata-shi, Niigata,",
        "phone": " 025-284-4633",
        "opening": " 10:00-20:00"
      },
      {
        "name": " Niigata",
        "type": " toy",
        "slug": " 4757",
        "postal_code": " 940-0861",
        "address": " 1436-5 Kawasaki-machi Nagaoka-shi, Niigata,",
        "phone": " 0258-39-3331",
        "opening": " 10:00-20:00"
      },
      {
        "name": " Nagaoka",
        "type": " est",
        "slug": " 4644",
        "postal_code": " 930-0887",
        "address": " GOFUKU SHOPPING CENTER ALICE 2F 1143-1 Gofuku, Toyama-shi, Toyama,",
        "phone": " 076-433-1008",
        "opening": " 10:00-20:00"
      },
      {
        "name": " Toyama",
        "type": " est",
        "slug": " 4652",
        "postal_code": " 933-0813",
        "address": " AEON MALL Takaoka 1F 383 Shimofusumae, Takaoka-shi, Toyama,",
        "phone": " 0766-25-9071",
        "opening": " 10:00-21:00"
      },
      {
        "name": " Takaoka",
        "type": " est",
        "slug": " 4641",
        "postal_code": " 924-0841",
        "address": " AEON MATTO SHOPPING CENTER 102-1 Hiramatsu-cho, Shiroyama-shi, Ishikawa,",
        "phone": " 076-274-4696",
        "opening": " 10:00-20:00"
      },
      {
        "name": " Matto",
        "type": " est",
        "slug": " 4650",
        "postal_code": " 910-0852",
        "address": " PARIO CITY 3F 12-7 Matsushiro-cho, Fukui-shi, Fukui,",
        "phone": " 0776-23-6366",
        "opening": " 10:00-20:00"
      },
      {
        "name": " Fukui",
        "type": " est",
        "slug": " 4711",
        "postal_code": " 381-0034",
        "address": " YOUNG PHARAOH 2F 1174 Takada, Nagano-shi, Nagano,",
        "phone": " 026-221-4613",
        "opening": " 10:00-20:00"
      },
      {
        "name": " Nagano",
        "type": " est",
        "slug": " 4763",
        "postal_code": " 399-0036",
        "address": " 4-21-27 Muraimachi-minami Matsumoto-shi, Nagano,",
        "phone": " 0263-85-5480",
        "opening": " 10:00-20:00"
      },
      {
        "name": " Matsumoto",
        "type": " toy",
        "slug": " 4785",
        "postal_code": " 385-0022",
        "address": " 1735-1 Aza-Nagatsuka Oaza-Iwamurada Saku-shi, Nagano,",
        "phone": " 0267-68-1299",
        "opening": " 10:00-20:00"
      },
      {
        "name": " Saku",
        "type": " est",
        "slug": " 4719",
        "postal_code": " 502-0882",
        "address": " MASA 21 1F 1-2-1 Masakinaka, Gifu-shi, Gifu,",
        "phone": " 058-233-0802",
        "opening": " 10:00-21:00"
      },
      {
        "name": " Gifu",
        "type": " est",
        "slug": " 4695",
        "postal_code": " 504-0943",
        "address": " AEON MALL Kakamigahara 3F 3-8 Nakakayaba-cho, Kakamigahara-shi, Gifu,",
        "phone": " 058-371-0090",
        "opening": " 9:00-21:00"
      },
      {
        "name": " Kakamigahara",
        "type": " est",
        "slug": " 4760",
        "postal_code": " 411-0934",
        "address": " WELL-D NAGAIZUMI 1076-1 Shimonagakubo, Nagaizumi-cho, Sunto-gun, Shizuoka,",
        "phone": " 055-989-9122",
        "opening": " 10:00-20:00"
      },
      {
        "name": " Nagaizumi",
        "type": " est",
        "slug": " 4748",
        "postal_code": " 424-0067",
        "address": " FRESPO SHIZUOKA 2F 860 Torisaka, Shimizu-ku, Shizuoka-shi, Shizuoka,",
        "phone": " 054-348-8123",
        "opening": " 10:00-20:00"
      },
      {
        "name": " Shizuoka",
        "type": " toy",
        "slug": " 4869",
        "postal_code": " 410-8541",
        "address": " LALAPORT Numazu 3F 301-3 Aza-Higashihara, Higashishiiji, Numazu-shi, Shizuoka,",
        "phone": " 055-924-5311",
        "opening": " 10:00-21:00"
      },
      {
        "name": " Numazu",
        "type": " toy",
        "slug": " 4706",
        "postal_code": " 480-0202",
        "address": " 139-17 Aza-Oyama Oaza-Toyoba, Toyoyama-cho, Nishikasugai-gun, Aichi,",
        "phone": " 0568-28-4677",
        "opening": " 10:00-20:00"
      },
      {
        "name": " Nishi-Kasugai",
        "type": " est",
        "slug": " 4708",
        "postal_code": " 444-0007",
        "address": " WORLD ONE 2F 38 Ishimaru, Ohira-cho, Okazaki-shi, Aichi,",
        "phone": " 0564-28-2100",
        "opening": " 10:00-20:00"
      },
      {
        "name": " Okazaki",
        "type": " toy",
        "slug": " 4744",
        "postal_code": " 454-0972",
        "address": " AZ PARK 2F 1-2421 Niie, Nakagawa-ku, Nagoya-shi, Aichi,",
        "phone": " 052-432-3480",
        "opening": " 10:00-20:00"
      },
      {
        "name": " Nagoya-Nakagawa",
        "type": " toy",
        "slug": " 4755",
        "postal_code": " 487-0011",
        "address": " KOZOJI CENTER 1-1-2 Chuodai, Kasugai-shi, Aichi,",
        "phone": " 0568-95-1970",
        "opening": " 10:00-20:00"
      },
      {
        "name": " Kozoji-New Town",
        "type": " est",
        "slug": " 4768",
        "postal_code": " 470-0224",
        "address": " AEON Miyoshi 2F 91 Aoki, Miyoshi-cho, Miyoshi-shi, Aichi,",
        "phone": " 0561-34-4676",
        "opening": " 10:00-21:00"
      },
      {
        "name": " Miyoshi",
        "type": " est",
        "slug": " 4779",
        "postal_code": " 470-2102",
        "address": " AEON MALL Higashiura 2F 13-2 Aza-Asahi, Oaza-Ogawa, Higashiura-cho, Chita-gun, Aichi,",
        "phone": " 0562-84-7371",
        "opening": " 10:00-21:00"
      },
      {
        "name": " Higashiura",
        "type": " est",
        "slug": " 4666",
        "postal_code": " 493-0001",
        "address": " AEON MALL Kisogawa 1F 25-1 Aza-Minamiyatsugaike, Kuroda, Kisogawa-cho, Ichinomiya-shi, Aichi,",
        "phone": " 0586-87-3027",
        "opening": " 10:00-21:00"
      },
      {
        "name": " Kisogawa",
        "type": " toy",
        "slug": " 4858",
        "postal_code": " 455-8501",
        "address": " LALAPORT Nagoyaminato Aquls 3F 2-3-2 Komei, Minato-ku, Nagoya-shi, Aichi,",
        "phone": " 052-661-7117",
        "opening": " 10:00-20:00"
      },
      {
        "name": " Nagoya MINATO AQULS",
        "type": " baby",
        "slug": " 4678",
        "postal_code": " 451-0064",
        "address": " YOSHIZUYA Nagoya Meisei 3F 2-33-8 Meisei, Nishi-ku, Nagoya-shi, Aichi,",
        "phone": " 052-523-6271",
        "opening": " 10:00~21:00"
      },
      {
        "name": " Meisei",
        "type": " est",
        "slug": " 4693",
        "postal_code": " 459-8016",
        "address": " AEON MALL Odaka 2F 2-450 Minami-odaka, Midori-ku, Nagoya-shi, Aichi,",
        "phone": " 052-621-3770",
        "opening": " 10:00-22:00"
      },
      {
        "name": " Odaka",
        "type": " est",
        "slug": " 4878",
        "postal_code": " 486-0842",
        "address": " IIAS Kasugai 2F 22 Aza-Tokyu, Rokkenya-cho, Kasugai-shi, Aichi,",
        "phone": " 0568-56-1177",
        "opening": " 10:00-20:00"
      },
      {
        "name": " Kasugai",
        "type": " toy",
        "slug": " 4883",
        "postal_code": " 470-0126",
        "address": " PRIME TREE AKAIKE 3F1 Minote,Akaike-cho,Nissin-shi,Aichi,",
        "phone": " 044-549-9111（お客様相談室：OPENまでのお問合せ先）",
        "opening": " 10:00-21:00"
      },
      {
        "name": " Akaike",
        "type": " toy",
        "slug": " 4645",
        "postal_code": " 514-0815",
        "address": " 985-1 Fujikata Tsu-shi, Mie,",
        "phone": " 059-222-3886",
        "opening": " 10:00-20:00"
      },
      {
        "name": "  <span class=\\store-list-shopname-open\\ style=\\color",
        "type": " est",
        "slug": " 4844",
        "postal_code": " 525-0067",
        "address": " AEON MALL Kusatsu 2F 300 Shinhama-cho, Kusatsu-shi, Shiga,",
        "phone": " 077-564-0300",
        "opening": " 10:00-21:00"
      },
      {
        "name": " Tsu",
        "type": " est",
        "slug": " 4682",
        "postal_code": " 601-8417",
        "address": " AEON MALL Kyoto Kaede-building 1F 1 NishikujoToriiguchi-chou, Minami-Ku, Kyoto-Shi, kyoto,",
        "phone": " 075-691-5657",
        "opening": " 10:00-21:00"
      },
      {
        "name": " Kusatsu",
        "type": " est",
        "slug": " 4622",
        "postal_code": " 597-0082",
        "address": " HOMECENTER DAIKI Kaizuka 217 Ishizai, Kaizuka-shi, Osaka,",
        "phone": " 072-436-0761",
        "opening": " 10:00-20:00"
      },
      {
        "name": " Kyoto Ekimae",
        "type": " est",
        "slug": " 4637",
        "postal_code": " 590-0111",
        "address": " JOYPARK Izumigaoka 3F 1-1-3 Miharadai, Minami-ku, Sakai-shi, Osaka,",
        "phone": " 072-296-3716",
        "opening": " 10:00-20:00"
      },
      {
        "name": " Kaizuka",
        "type": " toy",
        "slug": " 4657",
        "postal_code": " 583-0027",
        "address": " SORYA 2F 2-8-41 Oka, Fujiidera-shi, Osaka,",
        "phone": " 072-937-6630",
        "opening": " "
      },
      {
        "name": " Senboku Newtown",
        "type": " est",
        "slug": " 4660",
        "postal_code": " 565-0824",
        "address": " DEW Hankyu Yamada 4F 4-1-2 Yamadanishi, Suita-shi, Osaka,",
        "phone": " 06-4863-1190",
        "opening": " 10:00-21:00"
      },
      {
        "name": " Fujiidera",
        "type": " est",
        "slug": " 4679",
        "postal_code": " 538-0053",
        "address": " AEON MALL Tsurumi Ryokuchi 4F 4-17-1-415 Tsurumi, Tsurumi-ku, Osaka-shi, Osaka,",
        "phone": " 06-6912-6677",
        "opening": " 10:00-21:00"
      },
      {
        "name": " Hankyu Yamada",
        "type": " est",
        "slug": " 4681",
        "postal_code": " 556-0011",
        "address": " NAMBA PARKS 1F 2-10-70 Nambanaka, Naniwa-ku, Osaka-shi, Osaka,",
        "phone": " 06-6633-7050",
        "opening": " 11:00-21:00"
      },
      {
        "name": " Osaka-Tsurumi",
        "type": " baby",
        "slug": " 4667",
        "postal_code": " 577-0004",
        "address": " FRESPO Higashi Osaka 2F 3-9-64 Inadashin-machi, Higashiosaka-shi, Osaka,",
        "phone": " 06-4309-0171",
        "opening": " 10:00-20:00"
      },
      {
        "name": " Namba Parks",
        "type": " baby",
        "slug": " 4676",
        "postal_code": " 561-0821",
        "address": " EDION Toyonaka 3F 2-2-18 Hinode-cho, Toyonaka-shi, Osaka,",
        "phone": " 06-6334-5865",
        "opening": " 10:00-20:00"
      },
      {
        "name": " Higashi Osaka",
        "type": " est",
        "slug": " 4690",
        "postal_code": " 573-1121",
        "address": " KUZUHA MALL South-building 2F 10-85 Kuzuha Hanazono-cho, Hirakata-shi, Osaka,",
        "phone": " 072-851-6770",
        "opening": " 10:00-21:00"
      },
      {
        "name": " Toyonaka",
        "type": " est",
        "slug": " 4854",
        "postal_code": " 590-0905",
        "address": " AEON MALL Sakai Teppocho 3F 1banchi Teppo-cho, Sakai-ku, Sakai-shi, Osaka,",
        "phone": " 072-222-6608",
        "opening": " 10:00-21:00"
      },
      {
        "name": " Kuzuha",
        "type": " toy",
        "slug": " 4864",
        "postal_code": " 573-0171",
        "address": " NITORI MALL Hirakata 2F 1-2-1 Kitayama, Hirakata-shi, Osaka,",
        "phone": " 072-866-2630",
        "opening": " 10:00-21:00"
      },
      {
        "name": " Sakai Teppocho",
        "type": " est",
        "slug": " 4879",
        "postal_code": " 580-0032",
        "address": " SEVEN PARK AMAMI 2F 3-500 Amamihigashi, Matubara-shi, Osaka,",
        "phone": " 072-335-1033",
        "opening": " 10:00-21:00"
      },
      {
        "name": " Hirakata",
        "type": " est",
        "slug": " 4653",
        "postal_code": " 664-0847",
        "address": " AEON MALL Itami 1F 1-1-1-127 Fujinoki, Itami-shi, Hyogo,",
        "phone": " 072-783-9540",
        "opening": " 10:00-21:00"
      },
      {
        "name": " Matsubara Amami",
        "type": " baby",
        "slug": " 4670",
        "postal_code": " 665-0845",
        "address": " 1-8-26 Sakae-cho Takarazuka-shi, Hyogo,",
        "phone": " 0797-86-5153",
        "opening": " 10:00-20:00"
      },
      {
        "name": " Itami",
        "type": " est",
        "slug": " 4687",
        "postal_code": " 650-0044",
        "address": " KOBE HARBORLAND Umie North-mall 4F 1-7-2 Higashikawasaki-cho, Chuo-ku, Hyogo,",
        "phone": " 078-382-2888",
        "opening": " 10:00~20:00"
      },
      {
        "name": " Hankyu Takarazuka",
        "type": " est",
        "slug": " 4696",
        "postal_code": " 672-8064",
        "address": " AEON MALL HIMEJI RIVER CITY 3F 2560 Hosoe, Shikama-ku, Himeji-shi, Hyogo,",
        "phone": " 079-233-4147",
        "opening": " 10:00-21:00"
      },
      {
        "name": " Kobe Harborland",
        "type": " est",
        "slug": " 4850",
        "postal_code": " 675-0066",
        "address": " NIKKE PARKTOWN 2F 173-1 Jike-machi, Kakogawa-cho, Kakogawa-shi, Hyogo,",
        "phone": " 079-454-5800",
        "opening": " 10:00-20:00"
      },
      {
        "name": " Himeji",
        "type": " toy",
        "slug": " 4876",
        "postal_code": " 661-0976",
        "address": " AMAGASAKI Q’s MALL 3F 1-3-1 Shioe, Amagasaki-shi, Hyogo,",
        "phone": " 06-6494-8022",
        "opening": " 10:00-20:00"
      },
      {
        "name": " Kakogawa",
        "type": " est",
        "slug": " 4664",
        "postal_code": " 634-0837",
        "address": " AEON MALL Kashihara 2F 7-20-1-201 Mawarikawa-cho, Kashihara-shi, Nara,",
        "phone": " 0744-23-3017",
        "opening": " 10:00-21:00"
      },
      {
        "name": " Amagasaki",
        "type": " toy",
        "slug": " 4872",
        "postal_code": " 630-8012",
        "address": " MI-NARA 3F 1-3-1 Nijojiminami, Nara-shi, Nara,",
        "phone": " 0742-33-6620",
        "opening": " 10:00-20:00"
      },
      {
        "name": " Nara Kashihara",
        "type": " est",
        "slug": " 4692",
        "postal_code": " 640-8451",
        "address": " AEON MALL Wakayama 3F 573 Kusudani, Naka-aza, Wakayama-shi, Wakayama,",
        "phone": " 073-453-5550",
        "opening": " 10:00-21:00"
      },
      {
        "name": " Nara",
        "type": " toy",
        "slug": " 4675",
        "postal_code": " 680-0903",
        "address": " TRINITY MALL B-zone 2F 541 Minamigakuma, Tottori-shi, Tottori,",
        "phone": " 0857-31-0666",
        "opening": " 10:00-20:00"
      },
      {
        "name": " Wakayama",
        "type": " est",
        "slug": " 4619",
        "postal_code": " 700-0866",
        "address": " 2-6-52 Konan-cho kita-ku, Okayama-shi, Okayama,",
        "phone": " 086-231-4692",
        "opening": " 10:00-20:00"
      },
      {
        "name": " Tottori",
        "type": " est",
        "slug": " 4620",
        "postal_code": " 710-0802",
        "address": " AEON MALL Kurashiki 1F 1 Mizue, Kurashiki-shi, Okayama,",
        "phone": " 086-421-0770",
        "opening": " 10:00-21:00"
      },
      {
        "name": " Okayama",
        "type": " est",
        "slug": " 4636",
        "postal_code": " 721-0974",
        "address": " 3-21-47 Higashifukatsu-cho Fukuyama-shi, Hiroshima,",
        "phone": " 084-927-3084",
        "opening": " 10:00-20:00"
      },
      {
        "name": " Kurashiki",
        "type": " est",
        "slug": " 4794",
        "postal_code": " 735-0021",
        "address": " AEON MALL Hiroshima Fuchu 3F 2-1-1 Osu, Fuchu-cho, Aki-gun, Hiroshima,",
        "phone": " 082-284-5716",
        "opening": " 10:00~22:00"
      },
      {
        "name": " Fukuyama",
        "type": " toy",
        "slug": " 4856",
        "postal_code": " 731-5196",
        "address": " THE OUTLETS HIROSHIMA 1F 4-1-1 Ishinaihigashi, Saeki-ku, Hiroshima-shi, Hiroshima,",
        "phone": " 082-941-3777",
        "opening": " 10:00-20:00"
      },
      {
        "name": " Hiroshima Fuchu",
        "type": " toy",
        "slug": " 4646",
        "postal_code": " 752-0926",
        "address": " YOU-ME TOWN Chofu 1-1 Yumetown, Shimonoseki-shi, Yamaguchi,",
        "phone": " 083-248-0080",
        "opening": " 10:00-20:00"
      },
      {
        "name": " Hiroshima Seifushinto",
        "type": " toy",
        "slug": " 4672",
        "postal_code": " 753-0211",
        "address": " THE BIG Ohuchi 2F 581 Ohuchi Nagano, Yamaguchi-shi, Yamaguchi,",
        "phone": " 083-927-9990",
        "opening": " 10:00-20:00"
      },
      {
        "name": " Shimonoseki",
        "type": " est",
        "slug": " 4694",
        "postal_code": " 771-0204",
        "address": " FUJI GRAND Kitajima 2F 174 Nishinosu, Tainohama-aza, Kitajima-cho, Itano-gun, Tokushima,",
        "phone": " 088-697-0530",
        "opening": " 10:00-21:00"
      },
      {
        "name": " Yamaguchi",
        "type": " toy",
        "slug": " 4626",
        "postal_code": " 761-0113",
        "address": " POWERCITY Yashima 2F 1912-1 Hyakkoku, Yashimanishi-machiaza, Takamatsu-shi, Kagawa,",
        "phone": " 087-843-6816",
        "opening": " 10:00-21:00"
      },
      {
        "name": " Tokushima",
        "type": " est",
        "slug": " 4651",
        "postal_code": " 763-0062",
        "address": " PUBLIC PLAZA Marugame 56-1 Horai-cho, Marugame-shi, Kagawa,",
        "phone": " 0877-21-3123",
        "opening": " 10:00-20:00"
      },
      {
        "name": " Takamatsu",
        "type": " est",
        "slug": " 4625",
        "postal_code": " 790-0952",
        "address": " 4-4-32 Asoda-machi Matsuyama-shi, Ehime,",
        "phone": " 089-935-6218",
        "opening": " 10:00-20:00"
      },
      {
        "name": " Marugame",
        "type": " est",
        "slug": " 4688",
        "postal_code": " 792-0007",
        "address": " AEON MALL Niihama 2F 8-8 Maeda-cho, Niihama-shi, Ehime,",
        "phone": " 0897-32-1100",
        "opening": " 10:00-21:00"
      },
      {
        "name": " Matsuyama",
        "type": " est",
        "slug": " 4639",
        "postal_code": " 780-0026",
        "address": " AEON MALL Kochi 2F 1-4-8 Hadaminami-machi, Kochi-shi, Kochi,",
        "phone": " 088-823-4300",
        "opening": " 10:00-21:00"
      },
      {
        "name": " Niihama",
        "type": " est",
        "slug": " 4847",
        "postal_code": " 818-0042",
        "address": " AEON MALL Chikushino 3F 434-1 Ryumyoji, Chikushino-shi, Fukuoka,",
        "phone": " 092-924-1117",
        "opening": " "
      },
      {
        "name": " Kochi",
        "type": " toy",
        "slug": " 4647",
        "postal_code": " 836-0807",
        "address": " YOU-ME TOWN Omuta Annex 1F 2-28-1 Asahi-machi, Omuta-shi, Fukuoka,",
        "phone": " 0944-56-1553",
        "opening": " 10:00-20:00"
      },
      {
        "name": " Chikushino",
        "type": " est",
        "slug": " 4659",
        "postal_code": " 839-0865",
        "address": " YOU-ME TOWN Kurume Annex 2F 1-3-30 Shinaikawa, Kurume-shi, Fukuoka,",
        "phone": " 0942-45-5131",
        "opening": " 10:00-21:00"
      },
      {
        "name": " Omuta",
        "type": " est",
        "slug": " 4663",
        "postal_code": " 813-0016",
        "address": " AEON MALL Kashiihama 2F 3-12-1 Kashiihama, Higashi-ku, Fukuoka-shi, Fukuoka,",
        "phone": " 092-673-6311",
        "opening": " 10:00-21:00"
      },
      {
        "name": " Kurume",
        "type": " est",
        "slug": " 4665",
        "postal_code": " 811-2303",
        "address": " AEON MALL Fukuoka 1F 192-1-1001 Oinoki, Sakado-aza, Kasuya-machi-oaza, Kasuya-gun, Fukuoka,",
        "phone": " 092-939-5655",
        "opening": " 10:00-21:00"
      },
      {
        "name": " Fukuoka Kashii",
        "type": " est",
        "slug": " 4881",
        "postal_code": " 805-0071",
        "address": " AEON MALL Yahatahigashi 1F 3-2-102 Higashida, Yahatahigashi-ku, Kitakyusyu-shi, Fukuoka,",
        "phone": " 093-681-5701",
        "opening": " 10:00-21:00"
      },
      {
        "name": " Fukuoka Kasuya",
        "type": " est",
        "slug": " 4668",
        "postal_code": " 819-0001",
        "address": " MARINOACITY FUKUOKA Marina-side South-wing 1F 2-12-30 Odo, Nishi-ku, Fukuoka-shi, Fukuoka,",
        "phone": " 092-892-7676",
        "opening": " 10:00-20:00"
      },
      {
        "name": " Yahata",
        "type": " est",
        "slug": " 4684",
        "postal_code": " 811-3209",
        "address": " AEON MALL Fukutsu 3F 6-16-1 Himakino, Fukutsu-shi, Fukuoka,",
        "phone": " 0940-42-3500",
        "opening": " 10:00-21:00"
      },
      {
        "name": " Marinoacity Fukuoka",
        "type": " est",
        "slug": " 4849",
        "postal_code": " 800-0221",
        "address": " SUNNYSIDE MALL Kokura 2F 10-1 Shimosoneshin-machi, Kokuraminami-ku, Kitakyusyu-shi, Fukuoka,",
        "phone": " 093-475-5522",
        "opening": " 10:00-20:00"
      },
      {
        "name": " Fukutsu",
        "type": " est",
        "slug": " 4859",
        "postal_code": " 810-8639",
        "address": " MARK IS Fukuoka Momochi 3F 2-2-1 Jigyohama, Chuo-ku, Fukuoka-shi, Fukuoka,",
        "phone": " 092-831-7150",
        "opening": " 10:00-21:00"
      },
      {
        "name": " Kokura",
        "type": " est",
        "slug": " 4680",
        "postal_code": " 849-0919",
        "address": " YOU-ME TOWN Saga 1F 5-14-1 Hyogokita, Saga-shi, Saga,",
        "phone": " 0952-33-8601",
        "opening": " 10:00-22:00"
      },
      {
        "name": " Fukuoka Momochi",
        "type": " est",
        "slug": " 4689",
        "postal_code": " 857-0855",
        "address": " SASEBO GOBANGAI 3F 2-1 Shinminato-machi, Sasebo-shi, Nagasaki,",
        "phone": " 0956-25-5733",
        "opening": " 10:00-21:00"
      },
      {
        "name": " Saga",
        "type": " toy",
        "slug": " 4621",
        "postal_code": " 861-8010",
        "address": " YOU-ME TOWN Sanpian 1F 2-2-2 Kaminabe, Higashi-ku, Kumamoto-shi, Kumamoto,",
        "phone": " 096-389-8800",
        "opening": " 10:00-21:00"
      },
      {
        "name": " Sasebo",
        "type": " est",
        "slug": " 4658",
        "postal_code": " 869-0606",
        "address": " AEON MALL Uki 2F 1-1 Gonoe, Ogawa-machi, Uki-shi, Kumamoto,",
        "phone": " 0964-43-3141",
        "opening": " 10:00-20:00"
      },
      {
        "name": " Kumamoto",
        "type": " baby",
        "slug": " 4673",
        "postal_code": " 861-8010",
        "address": " YOU-ME TOWN Sanpian 2F 2-2-2 Kaminabe, Higashi-ku, Kumamoto-shi, Kumamoto,",
        "phone": " 096-389-2211",
        "opening": " 10:00-21:00"
      },
      {
        "name": " Kumamoto Minami",
        "type": " toy",
        "slug": " 4868",
        "postal_code": " 860-0805",
        "address": " SAKURA MACHI Kumamoto 3F 3-10 Sakura-machi, Chuo-ku, Kumamoto-shi, Kumamoto,",
        "phone": " 096-328-3240",
        "opening": " 10:00-20:00"
      },
      {
        "name": " Kumamoto",
        "type": " est",
        "slug": " 4630",
        "postal_code": " 870-1133",
        "address": " 525 Sukawa Miyazaki-aza, Oita-shi-oaza, Oita,",
        "phone": " 097-567-9520",
        "opening": " 10:00-20:00"
      },
      {
        "name": " Kumamoto Sakuramachi",
        "type": " est",
        "slug": " 4634",
        "postal_code": " 880-0905",
        "address": " EDION Miyazaki 2F 3-94-1 Nakamuranishi, Miyazaki-shi, Miyazaki,",
        "phone": " 0985-54-4776",
        "opening": " 10:00-20:00"
      },
      {
        "name": " Oita",
        "type": " est",
        "slug": " 4638",
        "postal_code": " 891-0123",
        "address": " NISHIMUTA N’s CITY 2F 5-35 Oroshihon-machi, Kagoshima-shi, Kagoshima,",
        "phone": " 099-269-1776",
        "opening": " 10:00-21:00"
      },
      {
        "name": " Miyazaki",
        "type": " est",
        "slug": " 4661",
        "postal_code": " 900-0006",
        "address": " APPLE TOWN 1F 3-3 Omoro-machi, Naha-shi, Okinawa,",
        "phone": " 098-865-5566",
        "opening": " 10:00-22:00"
      },
      {
        "name": " Kagoshima",
        "type": " est",
        "slug": " 4697",
        "postal_code": " 901-2306",
        "address": " AEON MALL Okinawa Rycom 4F 1 Rycom, Kitanakagusuku-son, Nakagami-gun, Okinawa,",
        "phone": " 098-933-7177",
        "opening": " 10:00-22:00"
      },
      {
        "name": " Naha-Shintoshin"
      },
      {
        "name": " Okinawa Rycom"
      }
    ]
  },
  "item_scraped_count": 159
}